[{"OBJECT_NAME":"STARLINK-2603","OBJECT_ID":"2021-038Y","EPOCH":"2026-03-10T00:00:02.999808","MEAN_MOTION":15.30181212,"ECCENTRICITY":0.00014615,"INCLINATION":53.1589,"RA_OF_ASC_NODE":346.3559,"ARG_OF_PERICENTER":79.8952,"MEAN_ANOMALY":186.4167,"EPHEMERIS_TYPE":0,"CLASSIFICATION_TYPE":"U","NORAD_CAT_ID":48375,"ELEMENT_SET_NO":999,"REV_AT_EPOCH":571,"BSTAR":8.0637876e-5,"MEAN_MOTION_DOT":2.028e-5,"MEAN_MOTION_DDOT":0},{"OBJECT_NAME":"HAWK-11A","OBJECT_ID":"2024-247F","EPOCH":"2026-03-09T12:17:43.893312","MEAN_MOTION":15.28849427,"ECCENTRICITY":0.00054663,"INCLINATION":44.9941,"RA_OF_ASC_NODE":114.3328,"ARG_OF_PERICENTER":327.3713,"MEAN_ANOMALY":32.6832,"EPHEMERIS_TYPE":0,"CLASSIFICATION_TYPE":"U","NORAD_CAT_ID":62382,"ELEMENT_SET_NO":999,"REV_AT_EPOCH":6774,"BSTAR":0.00034106017,"MEAN_MOTION_DOT":9.457e-5,"MEAN_MOTION_DDOT":0}]
